start=new Date('2022-09-22T00:00:00.000Z').valueOf();
sats=[{"INCLINATION":"53.0538","COUNTRY_CODE":"US","SEMIMAJOR_AXIS":"6925.337","MEAN_ELEMENT_THEORY":"SGP4","MEAN_ANOMALY":"275.6096","LAUNCH_DATE":"2021-03-04","EPOCH":"2022-09-21T21:07:46.869312","PERIOD":"95.592","EPHEMERIS_TYPE":"0","REF_FRAME":"TEME","NORAD_CAT_ID":"47752","FILE":"3579752","MEAN_MOTION":"15.06403684","RA_OF_ASC_NODE":"124.5692","CENTER_NAME":"EARTH","MEAN_MOTION_DOT":"0.00000403","APOAPSIS":"548.255","MEAN_MOTION_DDOT":"0.0000000000000","ECCENTRICITY":"0.00015200","TLE_LINE1":"1 47752U 21017AG  22264.88040358  .00000403  00000-0  45965-4 0  9998","REV_AT_EPOCH":"8721","RCS_SIZE":"MEDIUM","OBJECT_TYPE":"PAYLOAD","TLE_LINE2":"2 47752  53.0538 124.5692 0001520  84.5066 275.6096 15.06403684 87217","ELEMENT_SET_NO":"999","TIME_SYSTEM":"UTC","SITE":"AFETR","DECAY_DATE":null,"CLASSIFICATION_TYPE":"U","OBJECT_NAME":"STARLINK-2169","BSTAR":"0.00004596500000","ARG_OF_PERICENTER":"84.5066","OBJECT_ID":"2021-017AG","GP_ID":"213190022","PERIAPSIS":"546.150"},{"MEAN_MOTION":"15.06393241","FILE":"3579752","NORAD_CAT_ID":"47753","MEAN_MOTION_DOT":"-0.00000962","CENTER_NAME":"EARTH","RA_OF_ASC_NODE":"129.3904","EPHEMERIS_TYPE":"0","REF_FRAME":"TEME","LAUNCH_DATE":"2021-03-04","PERIOD":"95.593","EPOCH":"2022-09-21T22:08:09.873600","COUNTRY_CODE":"US","INCLINATION":"53.0547","SEMIMAJOR_AXIS":"6925.369","MEAN_ANOMALY":"285.0942","MEAN_ELEMENT_THEORY":"SGP4","MEAN_MOTION_DDOT":"0.0000000000000","REV_AT_EPOCH":"8714","TLE_LINE1":"1 47753U 21017AH  22264.92233650 -.00000962  00000-0 -45690-4 0  9990","ECCENTRICITY":"0.00014360","APOAPSIS":"548.229","TIME_SYSTEM":"UTC","SITE":"AFETR","ELEMENT_SET_NO":"999","TLE_LINE2":"2 47753  53.0547 129.3904 0001436  75.0206 285.0942 15.06393241 87148","OBJECT_TYPE":"PAYLOAD","RCS_SIZE":"LARGE","PERIAPSIS":"546.240","ARG_OF_PERICENTER":"75.0206","BSTAR":"-0.00004569000000","GP_ID":"213190273","OBJECT_ID":"2021-017AH","CLASSIFICATION_TYPE":"U","DECAY_DATE":null,"OBJECT_NAME":"STARLINK-2170"},{"MEAN_MOTION_DDOT":"0.0000000000000","ECCENTRICITY":"0.00015710","REV_AT_EPOCH":"8697","TLE_LINE1":"1 47754U 21017AJ  22264.03033736  .00000087  00000-0  24742-4 0  9997","APOAPSIS":"548.307","LAUNCH_DATE":"2021-03-04","EPOCH":"2022-09-21T00:43:41.147904","PERIOD":"95.592","INCLINATION":"53.0536","COUNTRY_CODE":"US","MEAN_ANOMALY":"289.1428","SEMIMAJOR_AXIS":"6925.354","MEAN_ELEMENT_THEORY":"SGP4","MEAN_MOTION":"15.06398332","FILE":"3579752","NORAD_CAT_ID":"47754","RA_OF_ASC_NODE":"133.3918","MEAN_MOTION_DOT":"0.00000087","CENTER_NAME":"EARTH","EPHEMERIS_TYPE":"0","REF_FRAME":"TEME","BSTAR":"0.00002474200000","ARG_OF_PERICENTER":"70.9731","OBJECT_ID":"2021-017AJ","GP_ID":"213191016","CLASSIFICATION_TYPE":"U","DECAY_DATE":null,"OBJECT_NAME":"STARLINK-2171","PERIAPSIS":"546.131","OBJECT_TYPE":"PAYLOAD","RCS_SIZE":"LARGE","ELEMENT_SET_NO":"999","SITE":"AFETR","TIME_SYSTEM":"UTC","TLE_LINE2":"2 47754  53.0536 133.3918 0001571  70.9731 289.1428 15.06398332 86974"},{"TLE_LINE2":"2 47756  53.0522 130.1312 0002029 102.0209 258.1007 15.06409531 87121","ELEMENT_SET_NO":"999","SITE":"AFETR","TIME_SYSTEM":"UTC","RCS_SIZE":"LARGE","OBJECT_TYPE":"PAYLOAD","PERIAPSIS":"545.779","DECAY_DATE":null,"CLASSIFICATION_TYPE":"U","OBJECT_NAME":"STARLINK-2174","BSTAR":"-0.00008521300000","ARG_OF_PERICENTER":"102.0209","OBJECT_ID":"2021-017AL","GP_ID":"213189772","EPHEMERIS_TYPE":"0","REF_FRAME":"TEME","NORAD_CAT_ID":"47756","FILE":"3579752","MEAN_MOTION":"15.06409531","RA_OF_ASC_NODE":"130.1312","MEAN_MOTION_DOT":"-0.00001551","CENTER_NAME":"EARTH","INCLINATION":"53.0522","COUNTRY_CODE":"US","MEAN_ELEMENT_THEORY":"SGP4","SEMIMAJOR_AXIS":"6925.319","MEAN_ANOMALY":"258.1007","LAUNCH_DATE":"2021-03-04","EPOCH":"2022-09-21T18:09:18.134496","PERIOD":"95.592","APOAPSIS":"548.589","MEAN_MOTION_DDOT":"0.0000000000000","ECCENTRICITY":"0.00020290","REV_AT_EPOCH":"8712","TLE_LINE1":"1 47756U 21017AL  22264.75645989 -.00001551  00000-0 -85213-4 0  9996"},{"EPHEMERIS_TYPE":"0","REF_FRAME":"TEME","FILE":"3579752","MEAN_MOTION":"15.06391643","NORAD_CAT_ID":"47757","RA_OF_ASC_NODE":"130.1878","MEAN_MOTION_DOT":"0.00000408","CENTER_NAME":"EARTH","INCLINATION":"53.0530","COUNTRY_CODE":"US","MEAN_ELEMENT_THEORY":"SGP4","SEMIMAJOR_AXIS":"6925.374","MEAN_ANOMALY":"283.1153","LAUNCH_DATE":"2021-03-04","EPOCH":"2022-09-21T17:48:05.035680","PERIOD":"95.593","APOAPSIS":"548.174","MEAN_MOTION_DDOT":"0.0000000000000","ECCENTRICITY":"0.00013500","REV_AT_EPOCH":"8706","TLE_LINE1":"1 47757U 21017AM  22264.74172495  .00000408  00000-0  46292-4 0  9995","TLE_LINE2":"2 47757  53.0530 130.1878 0001350  76.9987 283.1153 15.06391643 87063","ELEMENT_SET_NO":"999","TIME_SYSTEM":"UTC","SITE":"AFETR","RCS_SIZE":"LARGE","OBJECT_TYPE":"PAYLOAD","PERIAPSIS":"546.304","OBJECT_NAME":"STARLINK-2175","DECAY_DATE":null,"CLASSIFICATION_TYPE":"U","BSTAR":"0.00004629200000","ARG_OF_PERICENTER":"76.9987","OBJECT_ID":"2021-017AM","GP_ID":"213189522"},{"RA_OF_ASC_NODE":"143.9254","MEAN_MOTION_DOT":"-0.00000789","CENTER_NAME":"EARTH","FILE":"3579752","NORAD_CAT_ID":"47760","MEAN_MOTION":"15.06393946","REF_FRAME":"TEME","EPHEMERIS_TYPE":"0","EPOCH":"2022-09-20T21:52:30.903456","PERIOD":"95.593","LAUNCH_DATE":"2021-03-04","MEAN_ELEMENT_THEORY":"SGP4","SEMIMAJOR_AXIS":"6925.367","MEAN_ANOMALY":"289.2283","INCLINATION":"53.0530","COUNTRY_CODE":"US","ECCENTRICITY":"0.00014450","REV_AT_EPOCH":"8683","TLE_LINE1":"1 47760U 21017AQ  22263.91146879 -.00000789  00000-0 -34062-4 0  9990","MEAN_MOTION_DDOT":"0.0000000000000","APOAPSIS":"548.233","ELEMENT_SET_NO":"999","SITE":"AFETR","TIME_SYSTEM":"UTC","TLE_LINE2":"2 47760  53.0530 143.9254 0001445  70.8863 289.2283 15.06393946 86831","OBJECT_TYPE":"PAYLOAD","RCS_SIZE":"LARGE","PERIAPSIS":"546.231","OBJECT_ID":"2021-017AQ","GP_ID":"213190774","BSTAR":"-0.00003406200000","ARG_OF_PERICENTER":"70.8863","DECAY_DATE":null,"OBJECT_NAME":"STARLINK-2178","CLASSIFICATION_TYPE":"U"},{"RCS_SIZE":"LARGE","OBJECT_TYPE":"PAYLOAD","TLE_LINE2":"2 47761  53.0536 130.2115 0001346  84.1625 275.9517 15.06388682 87077","ELEMENT_SET_NO":"999","TIME_SYSTEM":"UTC","SITE":"AFETR","CLASSIFICATION_TYPE":"U","DECAY_DATE":null,"OBJECT_NAME":"STARLINK-2179","BSTAR":"0.00002461400000","ARG_OF_PERICENTER":"84.1625","OBJECT_ID":"2021-017AR","GP_ID":"213190516","PERIAPSIS":"546.316","INCLINATION":"53.0536","COUNTRY_CODE":"US","MEAN_ELEMENT_THEORY":"SGP4","SEMIMAJOR_AXIS":"6925.383","MEAN_ANOMALY":"275.9517","LAUNCH_DATE":"2021-03-04","PERIOD":"95.593","EPOCH":"2022-09-21T17:42:47.012832","EPHEMERIS_TYPE":"0","REF_FRAME":"TEME","MEAN_MOTION":"15.06388682","FILE":"3579752","NORAD_CAT_ID":"47761","RA_OF_ASC_NODE":"130.2115","MEAN_MOTION_DOT":"0.00000085","CENTER_NAME":"EARTH","APOAPSIS":"548.180","MEAN_MOTION_DDOT":"0.0000000000000","ECCENTRICITY":"0.00013460","TLE_LINE1":"1 47761U 21017AR  22264.73804413  .00000085  00000-0  24614-4 0  9996","REV_AT_EPOCH":"8707"},{"RCS_SIZE":"LARGE","OBJECT_TYPE":"PAYLOAD","TLE_LINE2":"2 47762  53.0563 148.3884 0001994  66.3643 293.7555 15.06398707 86777","TIME_SYSTEM":"UTC","SITE":"AFETR","ELEMENT_SET_NO":"999","DECAY_DATE":null,"CLASSIFICATION_TYPE":"U","OBJECT_NAME":"STARLINK-2180","GP_ID":"213189272","OBJECT_ID":"2021-017AS","ARG_OF_PERICENTER":"66.3643","BSTAR":"-0.00004346900000","PERIAPSIS":"545.837","SEMIMAJOR_AXIS":"6925.353","MEAN_ANOMALY":"293.7555","MEAN_ELEMENT_THEORY":"SGP4","COUNTRY_CODE":"US","INCLINATION":"53.0563","EPOCH":"2022-09-21T00:49:39.675936","PERIOD":"95.592","LAUNCH_DATE":"2021-03-04","REF_FRAME":"TEME","EPHEMERIS_TYPE":"0","MEAN_MOTION_DOT":"-0.00000929","CENTER_NAME":"EARTH","RA_OF_ASC_NODE":"148.3884","FILE":"3579752","MEAN_MOTION":"15.06398707","NORAD_CAT_ID":"47762","APOAPSIS":"548.598","REV_AT_EPOCH":"8677","TLE_LINE1":"1 47762U 21017AS  22264.03448699 -.00000929  00000-0 -43469-4 0  9998","ECCENTRICITY":"0.00019940","MEAN_MOTION_DDOT":"0.0000000000000"},{"MEAN_MOTION_DOT":"0.00001417","CENTER_NAME":"EARTH","RA_OF_ASC_NODE":"136.8137","MEAN_MOTION":"15.06408574","FILE":"3579752","NORAD_CAT_ID":"47763","REF_FRAME":"TEME","EPHEMERIS_TYPE":"0","PERIOD":"95.592","EPOCH":"2022-09-21T09:09:54.518400","LAUNCH_DATE":"2021-03-04","SEMIMAJOR_AXIS":"6925.322","MEAN_ELEMENT_THEORY":"SGP4","MEAN_ANOMALY":"278.9353","COUNTRY_CODE":"US","INCLINATION":"53.0527","TLE_LINE1":"1 47763U 21017AT  22264.38188100  .00001417  00000-0  11399-3 0  9992","REV_AT_EPOCH":"8694","ECCENTRICITY":"0.00015150","MEAN_MOTION_DDOT":"0.0000000000000","APOAPSIS":"548.236","TIME_SYSTEM":"UTC","SITE":"AFETR","ELEMENT_SET_NO":"999","TLE_LINE2":"2 47763  53.0527 136.8137 0001515  81.1808 278.9353 15.06408574 86942","OBJECT_TYPE":"PAYLOAD","RCS_SIZE":"LARGE","PERIAPSIS":"546.138","GP_ID":"213190023","OBJECT_ID":"2021-017AT","ARG_OF_PERICENTER":"81.1808","BSTAR":"0.00011399000000","DECAY_DATE":null,"CLASSIFICATION_TYPE":"U","OBJECT_NAME":"STARLINK-2181"},{"TLE_LINE1":"1 47764U 21017AU  22264.81590373  .00002046  00000-0  15623-3 0  9993","REV_AT_EPOCH":"8692","ECCENTRICITY":"0.00011000","MEAN_MOTION_DDOT":"0.0000000000000","APOAPSIS":"547.992","MEAN_MOTION_DOT":"0.00002046","CENTER_NAME":"EARTH","RA_OF_ASC_NODE":"144.8650","FILE":"3579752","MEAN_MOTION":"15.06394614","NORAD_CAT_ID":"47764","REF_FRAME":"TEME","EPHEMERIS_TYPE":"0","PERIOD":"95.592","EPOCH":"2022-09-21T19:34:54.082272","LAUNCH_DATE":"2021-03-04","MEAN_ELEMENT_THEORY":"SGP4","SEMIMAJOR_AXIS":"6925.365","MEAN_ANOMALY":"313.4851","COUNTRY_CODE":"US","INCLINATION":"53.0519","PERIAPSIS":"546.468","GP_ID":"213190274","OBJECT_ID":"2021-017AU","ARG_OF_PERICENTER":"46.6230","BSTAR":"0.00015623000000","CLASSIFICATION_TYPE":"U","DECAY_DATE":null,"OBJECT_NAME":"STARLINK-2182","TIME_SYSTEM":"UTC","SITE":"AFETR","ELEMENT_SET_NO":"999","TLE_LINE2":"2 47764  53.0519 144.8650 0001100  46.6230 313.4851 15.06394614 86923","OBJECT_TYPE":"PAYLOAD","RCS_SIZE":"LARGE"}];
